<?xml version="1.0" encoding="UTF-8"?>
<gpx version="1.1" creator="runcard-sample" xmlns="http://www.topografix.com/GPX/1/1">
  <trk>
    <name>Sunday Morning Run</name>
    <type>running</type>
    <trkseg>
      <trkpt lat="18.530800" lon="73.855785"><ele>560.0</ele><time>2026-09-20T06:15:00Z</time></trkpt>
      <trkpt lat="18.530937" lon="73.855869"><ele>561.0</ele><time>2026-09-20T06:15:05Z</time></trkpt>
      <trkpt lat="18.531077" lon="73.855949"><ele>561.9</ele><time>2026-09-20T06:15:10Z</time></trkpt>
      <trkpt lat="18.531220" lon="73.856026"><ele>562.8</ele><time>2026-09-20T06:15:15Z</time></trkpt>
      <trkpt lat="18.531366" lon="73.856098"><ele>563.7</ele><time>2026-09-20T06:15:20Z</time></trkpt>
      <trkpt lat="18.531513" lon="73.856166"><ele>564.5</ele><time>2026-09-20T06:15:25Z</time></trkpt>
      <trkpt lat="18.531663" lon="73.856229"><ele>565.3</ele><time>2026-09-20T06:15:30Z</time></trkpt>
      <trkpt lat="18.531816" lon="73.856287"><ele>566.0</ele><time>2026-09-20T06:15:35Z</time></trkpt>
      <trkpt lat="18.531970" lon="73.856340"><ele>566.5</ele><time>2026-09-20T06:15:40Z</time></trkpt>
      <trkpt lat="18.532126" lon="73.856387"><ele>567.0</ele><time>2026-09-20T06:15:45Z</time></trkpt>
      <trkpt lat="18.532283" lon="73.856427"><ele>567.4</ele><time>2026-09-20T06:15:50Z</time></trkpt>
      <trkpt lat="18.532442" lon="73.856462"><ele>567.7</ele><time>2026-09-20T06:15:55Z</time></trkpt>
      <trkpt lat="18.532602" lon="73.856489"><ele>567.9</ele><time>2026-09-20T06:16:00Z</time></trkpt>
      <trkpt lat="18.532763" lon="73.856510"><ele>568.1</ele><time>2026-09-20T06:16:05Z</time></trkpt>
      <trkpt lat="18.532924" lon="73.856524"><ele>568.1</ele><time>2026-09-20T06:16:10Z</time></trkpt>
      <trkpt lat="18.533086" lon="73.856531"><ele>568.1</ele><time>2026-09-20T06:16:15Z</time></trkpt>
      <trkpt lat="18.533247" lon="73.856530"><ele>568.0</ele><time>2026-09-20T06:16:20Z</time></trkpt>
      <trkpt lat="18.533409" lon="73.856522"><ele>567.9</ele><time>2026-09-20T06:16:25Z</time></trkpt>
      <trkpt lat="18.533570" lon="73.856506"><ele>567.8</ele><time>2026-09-20T06:16:30Z</time></trkpt>
      <trkpt lat="18.533730" lon="73.856483"><ele>567.6</ele><time>2026-09-20T06:16:35Z</time></trkpt>
      <trkpt lat="18.533889" lon="73.856451"><ele>567.4</ele><time>2026-09-20T06:16:40Z</time></trkpt>
      <trkpt lat="18.534046" lon="73.856412"><ele>567.3</ele><time>2026-09-20T06:16:45Z</time></trkpt>
      <trkpt lat="18.534202" lon="73.856365"><ele>567.2</ele><time>2026-09-20T06:16:50Z</time></trkpt>
      <trkpt lat="18.534356" lon="73.856310"><ele>567.1</ele><time>2026-09-20T06:16:55Z</time></trkpt>
      <trkpt lat="18.534507" lon="73.856247"><ele>567.0</ele><time>2026-09-20T06:17:00Z</time></trkpt>
      <trkpt lat="18.534656" lon="73.856176"><ele>567.0</ele><time>2026-09-20T06:17:05Z</time></trkpt>
      <trkpt lat="18.534801" lon="73.856098"><ele>567.1</ele><time>2026-09-20T06:17:10Z</time></trkpt>
      <trkpt lat="18.534944" lon="73.856012"><ele>567.3</ele><time>2026-09-20T06:17:15Z</time></trkpt>
      <trkpt lat="18.535083" lon="73.855919"><ele>567.5</ele><time>2026-09-20T06:17:20Z</time></trkpt>
      <trkpt lat="18.535218" lon="73.855819"><ele>567.8</ele><time>2026-09-20T06:17:25Z</time></trkpt>
      <trkpt lat="18.535349" lon="73.855712"><ele>568.2</ele><time>2026-09-20T06:17:30Z</time></trkpt>
      <trkpt lat="18.535476" lon="73.855598"><ele>568.6</ele><time>2026-09-20T06:17:35Z</time></trkpt>
      <trkpt lat="18.535598" lon="73.855477"><ele>569.1</ele><time>2026-09-20T06:17:40Z</time></trkpt>
      <trkpt lat="18.535716" lon="73.855350"><ele>569.6</ele><time>2026-09-20T06:17:45Z</time></trkpt>
      <trkpt lat="18.535829" lon="73.855218"><ele>570.2</ele><time>2026-09-20T06:17:50Z</time></trkpt>
      <trkpt lat="18.535937" lon="73.855079"><ele>570.8</ele><time>2026-09-20T06:17:55Z</time></trkpt>
      <trkpt lat="18.536040" lon="73.854935"><ele>571.4</ele><time>2026-09-20T06:18:00Z</time></trkpt>
      <trkpt lat="18.536138" lon="73.854786"><ele>572.0</ele><time>2026-09-20T06:18:05Z</time></trkpt>
      <trkpt lat="18.536230" lon="73.854632"><ele>572.6</ele><time>2026-09-20T06:18:10Z</time></trkpt>
      <trkpt lat="18.536317" lon="73.854474"><ele>573.1</ele><time>2026-09-20T06:18:15Z</time></trkpt>
      <trkpt lat="18.536399" lon="73.854312"><ele>573.6</ele><time>2026-09-20T06:18:20Z</time></trkpt>
      <trkpt lat="18.536475" lon="73.854146"><ele>574.0</ele><time>2026-09-20T06:18:25Z</time></trkpt>
      <trkpt lat="18.536545" lon="73.853977"><ele>574.4</ele><time>2026-09-20T06:18:30Z</time></trkpt>
      <trkpt lat="18.536610" lon="73.853805"><ele>574.6</ele><time>2026-09-20T06:18:35Z</time></trkpt>
      <trkpt lat="18.536669" lon="73.853631"><ele>574.8</ele><time>2026-09-20T06:18:40Z</time></trkpt>
      <trkpt lat="18.536722" lon="73.853454"><ele>574.8</ele><time>2026-09-20T06:18:45Z</time></trkpt>
      <trkpt lat="18.536771" lon="73.853275"><ele>574.8</ele><time>2026-09-20T06:18:50Z</time></trkpt>
      <trkpt lat="18.536814" lon="73.853095"><ele>574.7</ele><time>2026-09-20T06:18:55Z</time></trkpt>
      <trkpt lat="18.536852" lon="73.852914"><ele>574.4</ele><time>2026-09-20T06:19:00Z</time></trkpt>
      <trkpt lat="18.536884" lon="73.852732"><ele>574.1</ele><time>2026-09-20T06:19:05Z</time></trkpt>
      <trkpt lat="18.536912" lon="73.852550"><ele>573.6</ele><time>2026-09-20T06:19:10Z</time></trkpt>
      <trkpt lat="18.536936" lon="73.852367"><ele>573.1</ele><time>2026-09-20T06:19:15Z</time></trkpt>
      <trkpt lat="18.536954" lon="73.852185"><ele>572.5</ele><time>2026-09-20T06:19:20Z</time></trkpt>
      <trkpt lat="18.536968" lon="73.852003"><ele>571.8</ele><time>2026-09-20T06:19:25Z</time></trkpt>
      <trkpt lat="18.536979" lon="73.851822"><ele>571.1</ele><time>2026-09-20T06:19:30Z</time></trkpt>
      <trkpt lat="18.536985" lon="73.851643"><ele>570.4</ele><time>2026-09-20T06:19:35Z</time></trkpt>
      <trkpt lat="18.536987" lon="73.851464"><ele>569.6</ele><time>2026-09-20T06:19:40Z</time></trkpt>
      <trkpt lat="18.536987" lon="73.851287"><ele>568.9</ele><time>2026-09-20T06:19:45Z</time></trkpt>
      <trkpt lat="18.536983" lon="73.851112"><ele>568.2</ele><time>2026-09-20T06:19:50Z</time></trkpt>
      <trkpt lat="18.536976" lon="73.850939"><ele>567.5</ele><time>2026-09-20T06:19:55Z</time></trkpt>
      <trkpt lat="18.536967" lon="73.850767"><ele>566.8</ele><time>2026-09-20T06:20:00Z</time></trkpt>
      <trkpt lat="18.536955" lon="73.850598"><ele>566.2</ele><time>2026-09-20T06:20:05Z</time></trkpt>
      <trkpt lat="18.536942" lon="73.850432"><ele>565.6</ele><time>2026-09-20T06:20:10Z</time></trkpt>
      <trkpt lat="18.536926" lon="73.850267"><ele>565.2</ele><time>2026-09-20T06:20:15Z</time></trkpt>
      <trkpt lat="18.536910" lon="73.850105"><ele>564.8</ele><time>2026-09-20T06:20:20Z</time></trkpt>
      <trkpt lat="18.536892" lon="73.849946"><ele>564.4</ele><time>2026-09-20T06:20:25Z</time></trkpt>
      <trkpt lat="18.536873" lon="73.849789"><ele>564.2</ele><time>2026-09-20T06:20:30Z</time></trkpt>
      <trkpt lat="18.536854" lon="73.849635"><ele>564.0</ele><time>2026-09-20T06:20:35Z</time></trkpt>
      <trkpt lat="18.536835" lon="73.849484"><ele>563.9</ele><time>2026-09-20T06:20:40Z</time></trkpt>
      <trkpt lat="18.536815" lon="73.849334"><ele>563.9</ele><time>2026-09-20T06:20:45Z</time></trkpt>
      <trkpt lat="18.536796" lon="73.849188"><ele>563.9</ele><time>2026-09-20T06:20:50Z</time></trkpt>
      <trkpt lat="18.536777" lon="73.849043"><ele>563.9</ele><time>2026-09-20T06:20:55Z</time></trkpt>
      <trkpt lat="18.536759" lon="73.848901"><ele>564.0</ele><time>2026-09-20T06:21:00Z</time></trkpt>
      <trkpt lat="18.536742" lon="73.848761"><ele>564.1</ele><time>2026-09-20T06:21:05Z</time></trkpt>
      <trkpt lat="18.536726" lon="73.848623"><ele>564.2</ele><time>2026-09-20T06:21:10Z</time></trkpt>
      <trkpt lat="18.536711" lon="73.848486"><ele>564.2</ele><time>2026-09-20T06:21:15Z</time></trkpt>
      <trkpt lat="18.536698" lon="73.848351"><ele>564.3</ele><time>2026-09-20T06:21:20Z</time></trkpt>
      <trkpt lat="18.536687" lon="73.848218"><ele>564.3</ele><time>2026-09-20T06:21:25Z</time></trkpt>
      <trkpt lat="18.536677" lon="73.848086"><ele>564.2</ele><time>2026-09-20T06:21:30Z</time></trkpt>
      <trkpt lat="18.536669" lon="73.847954"><ele>564.1</ele><time>2026-09-20T06:21:35Z</time></trkpt>
      <trkpt lat="18.536663" lon="73.847824"><ele>563.9</ele><time>2026-09-20T06:21:40Z</time></trkpt>
      <trkpt lat="18.536658" lon="73.847694"><ele>563.6</ele><time>2026-09-20T06:21:45Z</time></trkpt>
      <trkpt lat="18.536656" lon="73.847565"><ele>563.2</ele><time>2026-09-20T06:21:50Z</time></trkpt>
      <trkpt lat="18.536656" lon="73.847435"><ele>562.8</ele><time>2026-09-20T06:21:55Z</time></trkpt>
      <trkpt lat="18.536658" lon="73.847306"><ele>562.2</ele><time>2026-09-20T06:22:00Z</time></trkpt>
      <trkpt lat="18.536663" lon="73.847176"><ele>561.6</ele><time>2026-09-20T06:22:05Z</time></trkpt>
      <trkpt lat="18.536669" lon="73.847046"><ele>560.9</ele><time>2026-09-20T06:22:10Z</time></trkpt>
      <trkpt lat="18.536677" lon="73.846914"><ele>560.1</ele><time>2026-09-20T06:22:15Z</time></trkpt>
      <trkpt lat="18.536687" lon="73.846782"><ele>559.3</ele><time>2026-09-20T06:22:20Z</time></trkpt>
      <trkpt lat="18.536698" lon="73.846649"><ele>558.4</ele><time>2026-09-20T06:22:25Z</time></trkpt>
      <trkpt lat="18.536711" lon="73.846514"><ele>557.5</ele><time>2026-09-20T06:22:30Z</time></trkpt>
      <trkpt lat="18.536726" lon="73.846377"><ele>556.5</ele><time>2026-09-20T06:22:35Z</time></trkpt>
      <trkpt lat="18.536742" lon="73.846239"><ele>555.6</ele><time>2026-09-20T06:22:40Z</time></trkpt>
      <trkpt lat="18.536759" lon="73.846099"><ele>554.6</ele><time>2026-09-20T06:22:45Z</time></trkpt>
      <trkpt lat="18.536777" lon="73.845957"><ele>553.7</ele><time>2026-09-20T06:22:50Z</time></trkpt>
      <trkpt lat="18.536796" lon="73.845812"><ele>552.9</ele><time>2026-09-20T06:22:55Z</time></trkpt>
      <trkpt lat="18.536815" lon="73.845666"><ele>552.1</ele><time>2026-09-20T06:23:00Z</time></trkpt>
      <trkpt lat="18.536835" lon="73.845516"><ele>551.3</ele><time>2026-09-20T06:23:05Z</time></trkpt>
      <trkpt lat="18.536854" lon="73.845365"><ele>550.7</ele><time>2026-09-20T06:23:10Z</time></trkpt>
      <trkpt lat="18.536873" lon="73.845211"><ele>550.1</ele><time>2026-09-20T06:23:15Z</time></trkpt>
      <trkpt lat="18.536892" lon="73.845054"><ele>549.6</ele><time>2026-09-20T06:23:20Z</time></trkpt>
      <trkpt lat="18.536910" lon="73.844895"><ele>549.2</ele><time>2026-09-20T06:23:25Z</time></trkpt>
      <trkpt lat="18.536926" lon="73.844733"><ele>548.9</ele><time>2026-09-20T06:23:30Z</time></trkpt>
      <trkpt lat="18.536942" lon="73.844568"><ele>548.8</ele><time>2026-09-20T06:23:35Z</time></trkpt>
      <trkpt lat="18.536955" lon="73.844402"><ele>548.7</ele><time>2026-09-20T06:23:40Z</time></trkpt>
      <trkpt lat="18.536967" lon="73.844233"><ele>548.7</ele><time>2026-09-20T06:23:45Z</time></trkpt>
      <trkpt lat="18.536976" lon="73.844061"><ele>548.7</ele><time>2026-09-20T06:23:50Z</time></trkpt>
      <trkpt lat="18.536983" lon="73.843888"><ele>548.9</ele><time>2026-09-20T06:23:55Z</time></trkpt>
      <trkpt lat="18.536987" lon="73.843713"><ele>549.1</ele><time>2026-09-20T06:24:00Z</time></trkpt>
      <trkpt lat="18.536987" lon="73.843536"><ele>549.3</ele><time>2026-09-20T06:24:05Z</time></trkpt>
      <trkpt lat="18.536985" lon="73.843357"><ele>549.6</ele><time>2026-09-20T06:24:10Z</time></trkpt>
      <trkpt lat="18.536979" lon="73.843178"><ele>549.9</ele><time>2026-09-20T06:24:15Z</time></trkpt>
      <trkpt lat="18.536968" lon="73.842997"><ele>550.2</ele><time>2026-09-20T06:24:20Z</time></trkpt>
      <trkpt lat="18.536954" lon="73.842815"><ele>550.5</ele><time>2026-09-20T06:24:25Z</time></trkpt>
      <trkpt lat="18.536936" lon="73.842633"><ele>550.7</ele><time>2026-09-20T06:24:30Z</time></trkpt>
      <trkpt lat="18.536912" lon="73.842450"><ele>550.9</ele><time>2026-09-20T06:24:35Z</time></trkpt>
      <trkpt lat="18.536884" lon="73.842268"><ele>551.1</ele><time>2026-09-20T06:24:40Z</time></trkpt>
      <trkpt lat="18.536852" lon="73.842086"><ele>551.2</ele><time>2026-09-20T06:24:45Z</time></trkpt>
      <trkpt lat="18.536814" lon="73.841905"><ele>551.2</ele><time>2026-09-20T06:24:50Z</time></trkpt>
      <trkpt lat="18.536771" lon="73.841725"><ele>551.2</ele><time>2026-09-20T06:24:55Z</time></trkpt>
      <trkpt lat="18.536722" lon="73.841546"><ele>551.1</ele><time>2026-09-20T06:25:00Z</time></trkpt>
      <trkpt lat="18.536669" lon="73.841369"><ele>550.9</ele><time>2026-09-20T06:25:05Z</time></trkpt>
      <trkpt lat="18.536610" lon="73.841195"><ele>550.7</ele><time>2026-09-20T06:25:10Z</time></trkpt>
      <trkpt lat="18.536545" lon="73.841023"><ele>550.4</ele><time>2026-09-20T06:25:15Z</time></trkpt>
      <trkpt lat="18.536475" lon="73.840854"><ele>550.0</ele><time>2026-09-20T06:25:20Z</time></trkpt>
      <trkpt lat="18.536399" lon="73.840688"><ele>549.6</ele><time>2026-09-20T06:25:25Z</time></trkpt>
      <trkpt lat="18.536317" lon="73.840526"><ele>549.2</ele><time>2026-09-20T06:25:30Z</time></trkpt>
      <trkpt lat="18.536230" lon="73.840368"><ele>548.8</ele><time>2026-09-20T06:25:35Z</time></trkpt>
      <trkpt lat="18.536138" lon="73.840214"><ele>548.3</ele><time>2026-09-20T06:25:40Z</time></trkpt>
      <trkpt lat="18.536040" lon="73.840065"><ele>547.9</ele><time>2026-09-20T06:25:45Z</time></trkpt>
      <trkpt lat="18.535937" lon="73.839921"><ele>547.5</ele><time>2026-09-20T06:25:50Z</time></trkpt>
      <trkpt lat="18.535829" lon="73.839782"><ele>547.1</ele><time>2026-09-20T06:25:55Z</time></trkpt>
      <trkpt lat="18.535716" lon="73.839650"><ele>546.8</ele><time>2026-09-20T06:26:00Z</time></trkpt>
      <trkpt lat="18.535598" lon="73.839523"><ele>546.6</ele><time>2026-09-20T06:26:05Z</time></trkpt>
      <trkpt lat="18.535476" lon="73.839402"><ele>546.4</ele><time>2026-09-20T06:26:10Z</time></trkpt>
      <trkpt lat="18.535349" lon="73.839288"><ele>546.4</ele><time>2026-09-20T06:26:15Z</time></trkpt>
      <trkpt lat="18.535218" lon="73.839181"><ele>546.4</ele><time>2026-09-20T06:26:20Z</time></trkpt>
      <trkpt lat="18.535083" lon="73.839081"><ele>546.5</ele><time>2026-09-20T06:26:25Z</time></trkpt>
      <trkpt lat="18.534944" lon="73.838988"><ele>546.7</ele><time>2026-09-20T06:26:30Z</time></trkpt>
      <trkpt lat="18.534801" lon="73.838902"><ele>547.1</ele><time>2026-09-20T06:26:35Z</time></trkpt>
      <trkpt lat="18.534656" lon="73.838824"><ele>547.5</ele><time>2026-09-20T06:26:40Z</time></trkpt>
      <trkpt lat="18.534507" lon="73.838753"><ele>548.0</ele><time>2026-09-20T06:26:45Z</time></trkpt>
      <trkpt lat="18.534356" lon="73.838690"><ele>548.6</ele><time>2026-09-20T06:26:50Z</time></trkpt>
      <trkpt lat="18.534202" lon="73.838635"><ele>549.3</ele><time>2026-09-20T06:26:55Z</time></trkpt>
      <trkpt lat="18.534046" lon="73.838588"><ele>550.1</ele><time>2026-09-20T06:27:00Z</time></trkpt>
      <trkpt lat="18.533889" lon="73.838549"><ele>550.9</ele><time>2026-09-20T06:27:05Z</time></trkpt>
      <trkpt lat="18.533730" lon="73.838517"><ele>551.7</ele><time>2026-09-20T06:27:10Z</time></trkpt>
      <trkpt lat="18.533570" lon="73.838494"><ele>552.6</ele><time>2026-09-20T06:27:15Z</time></trkpt>
      <trkpt lat="18.533409" lon="73.838478"><ele>553.4</ele><time>2026-09-20T06:27:20Z</time></trkpt>
      <trkpt lat="18.533247" lon="73.838470"><ele>554.3</ele><time>2026-09-20T06:27:25Z</time></trkpt>
      <trkpt lat="18.533086" lon="73.838469"><ele>555.1</ele><time>2026-09-20T06:27:30Z</time></trkpt>
      <trkpt lat="18.532924" lon="73.838476"><ele>555.9</ele><time>2026-09-20T06:27:35Z</time></trkpt>
      <trkpt lat="18.532763" lon="73.838490"><ele>556.7</ele><time>2026-09-20T06:27:40Z</time></trkpt>
      <trkpt lat="18.532602" lon="73.838511"><ele>557.4</ele><time>2026-09-20T06:27:45Z</time></trkpt>
      <trkpt lat="18.532442" lon="73.838538"><ele>558.0</ele><time>2026-09-20T06:27:50Z</time></trkpt>
      <trkpt lat="18.532283" lon="73.838573"><ele>558.5</ele><time>2026-09-20T06:27:55Z</time></trkpt>
      <trkpt lat="18.532126" lon="73.838613"><ele>559.0</ele><time>2026-09-20T06:28:00Z</time></trkpt>
      <trkpt lat="18.531970" lon="73.838660"><ele>559.3</ele><time>2026-09-20T06:28:05Z</time></trkpt>
      <trkpt lat="18.531816" lon="73.838713"><ele>559.6</ele><time>2026-09-20T06:28:10Z</time></trkpt>
      <trkpt lat="18.531663" lon="73.838771"><ele>559.9</ele><time>2026-09-20T06:28:15Z</time></trkpt>
      <trkpt lat="18.531513" lon="73.838834"><ele>560.0</ele><time>2026-09-20T06:28:20Z</time></trkpt>
      <trkpt lat="18.531366" lon="73.838902"><ele>560.1</ele><time>2026-09-20T06:28:25Z</time></trkpt>
      <trkpt lat="18.531220" lon="73.838974"><ele>560.1</ele><time>2026-09-20T06:28:30Z</time></trkpt>
      <trkpt lat="18.531077" lon="73.839051"><ele>560.1</ele><time>2026-09-20T06:28:35Z</time></trkpt>
      <trkpt lat="18.530937" lon="73.839131"><ele>560.1</ele><time>2026-09-20T06:28:40Z</time></trkpt>
      <trkpt lat="18.530800" lon="73.839215"><ele>560.0</ele><time>2026-09-20T06:28:45Z</time></trkpt>
      <trkpt lat="18.530665" lon="73.839301"><ele>559.9</ele><time>2026-09-20T06:28:50Z</time></trkpt>
      <trkpt lat="18.530534" lon="73.839391"><ele>559.9</ele><time>2026-09-20T06:28:55Z</time></trkpt>
      <trkpt lat="18.530405" lon="73.839482"><ele>559.9</ele><time>2026-09-20T06:29:00Z</time></trkpt>
      <trkpt lat="18.530279" lon="73.839576"><ele>559.9</ele><time>2026-09-20T06:29:05Z</time></trkpt>
      <trkpt lat="18.530156" lon="73.839670"><ele>560.0</ele><time>2026-09-20T06:29:10Z</time></trkpt>
      <trkpt lat="18.530035" lon="73.839767"><ele>560.1</ele><time>2026-09-20T06:29:15Z</time></trkpt>
      <trkpt lat="18.529917" lon="73.839864"><ele>560.4</ele><time>2026-09-20T06:29:20Z</time></trkpt>
      <trkpt lat="18.529802" lon="73.839961"><ele>560.7</ele><time>2026-09-20T06:29:25Z</time></trkpt>
      <trkpt lat="18.529690" lon="73.840059"><ele>561.0</ele><time>2026-09-20T06:29:30Z</time></trkpt>
      <trkpt lat="18.529580" lon="73.840156"><ele>561.5</ele><time>2026-09-20T06:29:35Z</time></trkpt>
      <trkpt lat="18.529472" lon="73.840253"><ele>562.0</ele><time>2026-09-20T06:29:40Z</time></trkpt>
      <trkpt lat="18.529367" lon="73.840350"><ele>562.6</ele><time>2026-09-20T06:29:45Z</time></trkpt>
      <trkpt lat="18.529263" lon="73.840445"><ele>563.3</ele><time>2026-09-20T06:29:50Z</time></trkpt>
      <trkpt lat="18.529162" lon="73.840539"><ele>564.1</ele><time>2026-09-20T06:29:55Z</time></trkpt>
      <trkpt lat="18.529062" lon="73.840632"><ele>564.9</ele><time>2026-09-20T06:30:00Z</time></trkpt>
      <trkpt lat="18.528963" lon="73.840723"><ele>565.7</ele><time>2026-09-20T06:30:05Z</time></trkpt>
      <trkpt lat="18.528866" lon="73.840812"><ele>566.6</ele><time>2026-09-20T06:30:10Z</time></trkpt>
      <trkpt lat="18.528770" lon="73.840899"><ele>567.4</ele><time>2026-09-20T06:30:15Z</time></trkpt>
      <trkpt lat="18.528675" lon="73.840985"><ele>568.3</ele><time>2026-09-20T06:30:20Z</time></trkpt>
      <trkpt lat="18.528580" lon="73.841068"><ele>569.1</ele><time>2026-09-20T06:30:25Z</time></trkpt>
      <trkpt lat="18.528486" lon="73.841148"><ele>569.9</ele><time>2026-09-20T06:30:30Z</time></trkpt>
      <trkpt lat="18.528393" lon="73.841227"><ele>570.7</ele><time>2026-09-20T06:30:35Z</time></trkpt>
      <trkpt lat="18.528299" lon="73.841303"><ele>571.4</ele><time>2026-09-20T06:30:40Z</time></trkpt>
      <trkpt lat="18.528205" lon="73.841376"><ele>572.0</ele><time>2026-09-20T06:30:45Z</time></trkpt>
      <trkpt lat="18.528111" lon="73.841448"><ele>572.5</ele><time>2026-09-20T06:30:50Z</time></trkpt>
      <trkpt lat="18.528016" lon="73.841517"><ele>572.9</ele><time>2026-09-20T06:30:55Z</time></trkpt>
      <trkpt lat="18.527920" lon="73.841584"><ele>573.3</ele><time>2026-09-20T06:31:00Z</time></trkpt>
      <trkpt lat="18.527824" lon="73.841648"><ele>573.5</ele><time>2026-09-20T06:31:05Z</time></trkpt>
      <trkpt lat="18.527726" lon="73.841711"><ele>573.6</ele><time>2026-09-20T06:31:10Z</time></trkpt>
      <trkpt lat="18.527627" lon="73.841772"><ele>573.6</ele><time>2026-09-20T06:31:15Z</time></trkpt>
      <trkpt lat="18.527526" lon="73.841831"><ele>573.6</ele><time>2026-09-20T06:31:20Z</time></trkpt>
      <trkpt lat="18.527425" lon="73.841888"><ele>573.4</ele><time>2026-09-20T06:31:25Z</time></trkpt>
      <trkpt lat="18.527321" lon="73.841945"><ele>573.2</ele><time>2026-09-20T06:31:30Z</time></trkpt>
      <trkpt lat="18.527215" lon="73.842000"><ele>572.9</ele><time>2026-09-20T06:31:35Z</time></trkpt>
      <trkpt lat="18.527108" lon="73.842054"><ele>572.5</ele><time>2026-09-20T06:31:40Z</time></trkpt>
      <trkpt lat="18.526999" lon="73.842107"><ele>572.1</ele><time>2026-09-20T06:31:45Z</time></trkpt>
      <trkpt lat="18.526888" lon="73.842160"><ele>571.7</ele><time>2026-09-20T06:31:50Z</time></trkpt>
      <trkpt lat="18.526775" lon="73.842213"><ele>571.2</ele><time>2026-09-20T06:31:55Z</time></trkpt>
      <trkpt lat="18.526659" lon="73.842266"><ele>570.8</ele><time>2026-09-20T06:32:00Z</time></trkpt>
      <trkpt lat="18.526542" lon="73.842319"><ele>570.4</ele><time>2026-09-20T06:32:05Z</time></trkpt>
      <trkpt lat="18.526423" lon="73.842373"><ele>570.0</ele><time>2026-09-20T06:32:10Z</time></trkpt>
      <trkpt lat="18.526302" lon="73.842428"><ele>569.6</ele><time>2026-09-20T06:32:15Z</time></trkpt>
      <trkpt lat="18.526179" lon="73.842485"><ele>569.3</ele><time>2026-09-20T06:32:20Z</time></trkpt>
      <trkpt lat="18.526054" lon="73.842543"><ele>569.1</ele><time>2026-09-20T06:32:25Z</time></trkpt>
      <trkpt lat="18.525928" lon="73.842602"><ele>568.9</ele><time>2026-09-20T06:32:30Z</time></trkpt>
      <trkpt lat="18.525800" lon="73.842664"><ele>568.8</ele><time>2026-09-20T06:32:35Z</time></trkpt>
      <trkpt lat="18.525671" lon="73.842728"><ele>568.8</ele><time>2026-09-20T06:32:40Z</time></trkpt>
      <trkpt lat="18.525541" lon="73.842795"><ele>568.8</ele><time>2026-09-20T06:32:45Z</time></trkpt>
      <trkpt lat="18.525410" lon="73.842865"><ele>568.9</ele><time>2026-09-20T06:32:50Z</time></trkpt>
      <trkpt lat="18.525278" lon="73.842938"><ele>569.1</ele><time>2026-09-20T06:32:55Z</time></trkpt>
      <trkpt lat="18.525145" lon="73.843014"><ele>569.3</ele><time>2026-09-20T06:33:00Z</time></trkpt>
      <trkpt lat="18.525012" lon="73.843094"><ele>569.5</ele><time>2026-09-20T06:33:05Z</time></trkpt>
      <trkpt lat="18.524880" lon="73.843178"><ele>569.8</ele><time>2026-09-20T06:33:10Z</time></trkpt>
      <trkpt lat="18.524747" lon="73.843265"><ele>570.1</ele><time>2026-09-20T06:33:15Z</time></trkpt>
      <trkpt lat="18.524615" lon="73.843357"><ele>570.4</ele><time>2026-09-20T06:33:20Z</time></trkpt>
      <trkpt lat="18.524484" lon="73.843454"><ele>570.7</ele><time>2026-09-20T06:33:25Z</time></trkpt>
      <trkpt lat="18.524354" lon="73.843554"><ele>570.9</ele><time>2026-09-20T06:33:30Z</time></trkpt>
      <trkpt lat="18.524226" lon="73.843659"><ele>571.1</ele><time>2026-09-20T06:33:35Z</time></trkpt>
      <trkpt lat="18.524099" lon="73.843769"><ele>571.3</ele><time>2026-09-20T06:33:40Z</time></trkpt>
      <trkpt lat="18.523974" lon="73.843884"><ele>571.3</ele><time>2026-09-20T06:33:45Z</time></trkpt>
      <trkpt lat="18.523852" lon="73.844003"><ele>571.3</ele><time>2026-09-20T06:33:50Z</time></trkpt>
      <trkpt lat="18.523733" lon="73.844127"><ele>571.2</ele><time>2026-09-20T06:33:55Z</time></trkpt>
      <trkpt lat="18.523616" lon="73.844255"><ele>571.1</ele><time>2026-09-20T06:34:00Z</time></trkpt>
      <trkpt lat="18.523504" lon="73.844389"><ele>570.8</ele><time>2026-09-20T06:34:05Z</time></trkpt>
      <trkpt lat="18.523394" lon="73.844526"><ele>570.4</ele><time>2026-09-20T06:34:10Z</time></trkpt>
      <trkpt lat="18.523289" lon="73.844669"><ele>569.9</ele><time>2026-09-20T06:34:15Z</time></trkpt>
      <trkpt lat="18.523189" lon="73.844816"><ele>569.3</ele><time>2026-09-20T06:34:20Z</time></trkpt>
      <trkpt lat="18.523093" lon="73.844967"><ele>568.7</ele><time>2026-09-20T06:34:25Z</time></trkpt>
      <trkpt lat="18.523001" lon="73.845122"><ele>567.9</ele><time>2026-09-20T06:34:30Z</time></trkpt>
      <trkpt lat="18.522916" lon="73.845281"><ele>567.1</ele><time>2026-09-20T06:34:35Z</time></trkpt>
      <trkpt lat="18.522835" lon="73.845444"><ele>566.3</ele><time>2026-09-20T06:34:40Z</time></trkpt>
      <trkpt lat="18.522761" lon="73.845610"><ele>565.4</ele><time>2026-09-20T06:34:45Z</time></trkpt>
      <trkpt lat="18.522692" lon="73.845780"><ele>564.4</ele><time>2026-09-20T06:34:50Z</time></trkpt>
      <trkpt lat="18.522630" lon="73.845952"><ele>563.5</ele><time>2026-09-20T06:34:55Z</time></trkpt>
      <trkpt lat="18.522574" lon="73.846128"><ele>562.5</ele><time>2026-09-20T06:35:00Z</time></trkpt>
      <trkpt lat="18.522524" lon="73.846306"><ele>561.6</ele><time>2026-09-20T06:35:05Z</time></trkpt>
      <trkpt lat="18.522482" lon="73.846486"><ele>560.7</ele><time>2026-09-20T06:35:10Z</time></trkpt>
      <trkpt lat="18.522446" lon="73.846668"><ele>559.9</ele><time>2026-09-20T06:35:15Z</time></trkpt>
      <trkpt lat="18.522417" lon="73.846851"><ele>559.1</ele><time>2026-09-20T06:35:20Z</time></trkpt>
      <trkpt lat="18.522396" lon="73.847036"><ele>558.4</ele><time>2026-09-20T06:35:25Z</time></trkpt>
      <trkpt lat="18.522381" lon="73.847221"><ele>557.8</ele><time>2026-09-20T06:35:30Z</time></trkpt>
      <trkpt lat="18.522374" lon="73.847407"><ele>557.2</ele><time>2026-09-20T06:35:35Z</time></trkpt>
      <trkpt lat="18.522374" lon="73.847593"><ele>556.8</ele><time>2026-09-20T06:35:40Z</time></trkpt>
      <trkpt lat="18.522381" lon="73.847779"><ele>556.4</ele><time>2026-09-20T06:35:45Z</time></trkpt>
      <trkpt lat="18.522396" lon="73.847964"><ele>556.1</ele><time>2026-09-20T06:35:50Z</time></trkpt>
      <trkpt lat="18.522417" lon="73.848149"><ele>555.9</ele><time>2026-09-20T06:35:55Z</time></trkpt>
      <trkpt lat="18.522446" lon="73.848332"><ele>555.8</ele><time>2026-09-20T06:36:00Z</time></trkpt>
      <trkpt lat="18.522482" lon="73.848514"><ele>555.7</ele><time>2026-09-20T06:36:05Z</time></trkpt>
      <trkpt lat="18.522524" lon="73.848694"><ele>555.7</ele><time>2026-09-20T06:36:10Z</time></trkpt>
      <trkpt lat="18.522574" lon="73.848872"><ele>555.8</ele><time>2026-09-20T06:36:15Z</time></trkpt>
      <trkpt lat="18.522630" lon="73.849048"><ele>555.8</ele><time>2026-09-20T06:36:20Z</time></trkpt>
      <trkpt lat="18.522692" lon="73.849220"><ele>555.9</ele><time>2026-09-20T06:36:25Z</time></trkpt>
      <trkpt lat="18.522761" lon="73.849390"><ele>556.0</ele><time>2026-09-20T06:36:30Z</time></trkpt>
      <trkpt lat="18.522835" lon="73.849556"><ele>556.1</ele><time>2026-09-20T06:36:35Z</time></trkpt>
      <trkpt lat="18.522916" lon="73.849719"><ele>556.1</ele><time>2026-09-20T06:36:40Z</time></trkpt>
      <trkpt lat="18.523001" lon="73.849878"><ele>556.1</ele><time>2026-09-20T06:36:45Z</time></trkpt>
      <trkpt lat="18.523093" lon="73.850033"><ele>556.1</ele><time>2026-09-20T06:36:50Z</time></trkpt>
      <trkpt lat="18.523189" lon="73.850184"><ele>556.0</ele><time>2026-09-20T06:36:55Z</time></trkpt>
      <trkpt lat="18.523289" lon="73.850331"><ele>555.8</ele><time>2026-09-20T06:37:00Z</time></trkpt>
      <trkpt lat="18.523394" lon="73.850474"><ele>555.6</ele><time>2026-09-20T06:37:05Z</time></trkpt>
      <trkpt lat="18.523504" lon="73.850611"><ele>555.2</ele><time>2026-09-20T06:37:10Z</time></trkpt>
      <trkpt lat="18.523616" lon="73.850745"><ele>554.8</ele><time>2026-09-20T06:37:15Z</time></trkpt>
      <trkpt lat="18.523733" lon="73.850873"><ele>554.4</ele><time>2026-09-20T06:37:20Z</time></trkpt>
      <trkpt lat="18.523852" lon="73.850997"><ele>553.8</ele><time>2026-09-20T06:37:25Z</time></trkpt>
      <trkpt lat="18.523974" lon="73.851116"><ele>553.2</ele><time>2026-09-20T06:37:30Z</time></trkpt>
      <trkpt lat="18.524099" lon="73.851231"><ele>552.5</ele><time>2026-09-20T06:37:35Z</time></trkpt>
      <trkpt lat="18.524226" lon="73.851341"><ele>551.8</ele><time>2026-09-20T06:37:40Z</time></trkpt>
      <trkpt lat="18.524354" lon="73.851446"><ele>551.1</ele><time>2026-09-20T06:37:45Z</time></trkpt>
      <trkpt lat="18.524484" lon="73.851546"><ele>550.4</ele><time>2026-09-20T06:37:50Z</time></trkpt>
      <trkpt lat="18.524615" lon="73.851643"><ele>549.6</ele><time>2026-09-20T06:37:55Z</time></trkpt>
      <trkpt lat="18.524747" lon="73.851735"><ele>548.9</ele><time>2026-09-20T06:38:00Z</time></trkpt>
      <trkpt lat="18.524880" lon="73.851822"><ele>548.2</ele><time>2026-09-20T06:38:05Z</time></trkpt>
      <trkpt lat="18.525012" lon="73.851906"><ele>547.5</ele><time>2026-09-20T06:38:10Z</time></trkpt>
      <trkpt lat="18.525145" lon="73.851986"><ele>546.9</ele><time>2026-09-20T06:38:15Z</time></trkpt>
      <trkpt lat="18.525278" lon="73.852062"><ele>546.4</ele><time>2026-09-20T06:38:20Z</time></trkpt>
      <trkpt lat="18.525410" lon="73.852135"><ele>545.9</ele><time>2026-09-20T06:38:25Z</time></trkpt>
      <trkpt lat="18.525541" lon="73.852205"><ele>545.6</ele><time>2026-09-20T06:38:30Z</time></trkpt>
      <trkpt lat="18.525671" lon="73.852272"><ele>545.3</ele><time>2026-09-20T06:38:35Z</time></trkpt>
      <trkpt lat="18.525800" lon="73.852336"><ele>545.2</ele><time>2026-09-20T06:38:40Z</time></trkpt>
      <trkpt lat="18.525928" lon="73.852398"><ele>545.2</ele><time>2026-09-20T06:38:45Z</time></trkpt>
      <trkpt lat="18.526054" lon="73.852457"><ele>545.2</ele><time>2026-09-20T06:38:50Z</time></trkpt>
      <trkpt lat="18.526179" lon="73.852515"><ele>545.4</ele><time>2026-09-20T06:38:55Z</time></trkpt>
      <trkpt lat="18.526302" lon="73.852572"><ele>545.6</ele><time>2026-09-20T06:39:00Z</time></trkpt>
      <trkpt lat="18.526423" lon="73.852627"><ele>546.0</ele><time>2026-09-20T06:39:05Z</time></trkpt>
      <trkpt lat="18.526542" lon="73.852681"><ele>546.4</ele><time>2026-09-20T06:39:10Z</time></trkpt>
      <trkpt lat="18.526659" lon="73.852734"><ele>546.9</ele><time>2026-09-20T06:39:15Z</time></trkpt>
      <trkpt lat="18.526775" lon="73.852787"><ele>547.4</ele><time>2026-09-20T06:39:20Z</time></trkpt>
      <trkpt lat="18.526888" lon="73.852840"><ele>548.0</ele><time>2026-09-20T06:39:25Z</time></trkpt>
      <trkpt lat="18.526999" lon="73.852893"><ele>548.6</ele><time>2026-09-20T06:39:30Z</time></trkpt>
      <trkpt lat="18.527108" lon="73.852946"><ele>549.2</ele><time>2026-09-20T06:39:35Z</time></trkpt>
      <trkpt lat="18.527215" lon="73.853000"><ele>549.8</ele><time>2026-09-20T06:39:40Z</time></trkpt>
      <trkpt lat="18.527321" lon="73.853055"><ele>550.4</ele><time>2026-09-20T06:39:45Z</time></trkpt>
      <trkpt lat="18.527425" lon="73.853112"><ele>550.9</ele><time>2026-09-20T06:39:50Z</time></trkpt>
      <trkpt lat="18.527526" lon="73.853169"><ele>551.4</ele><time>2026-09-20T06:39:55Z</time></trkpt>
      <trkpt lat="18.527627" lon="73.853228"><ele>551.8</ele><time>2026-09-20T06:40:00Z</time></trkpt>
      <trkpt lat="18.527726" lon="73.853289"><ele>552.2</ele><time>2026-09-20T06:40:05Z</time></trkpt>
      <trkpt lat="18.527824" lon="73.853352"><ele>552.5</ele><time>2026-09-20T06:40:10Z</time></trkpt>
      <trkpt lat="18.527920" lon="73.853416"><ele>552.7</ele><time>2026-09-20T06:40:15Z</time></trkpt>
      <trkpt lat="18.528016" lon="73.853483"><ele>552.9</ele><time>2026-09-20T06:40:20Z</time></trkpt>
      <trkpt lat="18.528111" lon="73.853552"><ele>553.0</ele><time>2026-09-20T06:40:25Z</time></trkpt>
      <trkpt lat="18.528205" lon="73.853624"><ele>553.0</ele><time>2026-09-20T06:40:30Z</time></trkpt>
      <trkpt lat="18.528299" lon="73.853697"><ele>552.9</ele><time>2026-09-20T06:40:35Z</time></trkpt>
      <trkpt lat="18.528393" lon="73.853773"><ele>552.8</ele><time>2026-09-20T06:40:40Z</time></trkpt>
      <trkpt lat="18.528486" lon="73.853852"><ele>552.7</ele><time>2026-09-20T06:40:45Z</time></trkpt>
      <trkpt lat="18.528580" lon="73.853932"><ele>552.6</ele><time>2026-09-20T06:40:50Z</time></trkpt>
      <trkpt lat="18.528675" lon="73.854015"><ele>552.4</ele><time>2026-09-20T06:40:55Z</time></trkpt>
      <trkpt lat="18.528770" lon="73.854101"><ele>552.2</ele><time>2026-09-20T06:41:00Z</time></trkpt>
      <trkpt lat="18.528866" lon="73.854188"><ele>552.1</ele><time>2026-09-20T06:41:05Z</time></trkpt>
      <trkpt lat="18.528963" lon="73.854277"><ele>552.0</ele><time>2026-09-20T06:41:10Z</time></trkpt>
      <trkpt lat="18.529062" lon="73.854368"><ele>551.9</ele><time>2026-09-20T06:41:15Z</time></trkpt>
      <trkpt lat="18.529162" lon="73.854461"><ele>551.9</ele><time>2026-09-20T06:41:20Z</time></trkpt>
      <trkpt lat="18.529263" lon="73.854555"><ele>551.9</ele><time>2026-09-20T06:41:25Z</time></trkpt>
      <trkpt lat="18.529367" lon="73.854650"><ele>552.1</ele><time>2026-09-20T06:41:30Z</time></trkpt>
      <trkpt lat="18.529472" lon="73.854747"><ele>552.3</ele><time>2026-09-20T06:41:35Z</time></trkpt>
      <trkpt lat="18.529580" lon="73.854844"><ele>552.6</ele><time>2026-09-20T06:41:40Z</time></trkpt>
      <trkpt lat="18.529690" lon="73.854941"><ele>553.0</ele><time>2026-09-20T06:41:45Z</time></trkpt>
      <trkpt lat="18.529802" lon="73.855039"><ele>553.5</ele><time>2026-09-20T06:41:50Z</time></trkpt>
      <trkpt lat="18.529917" lon="73.855136"><ele>554.0</ele><time>2026-09-20T06:41:55Z</time></trkpt>
      <trkpt lat="18.530035" lon="73.855233"><ele>554.7</ele><time>2026-09-20T06:42:00Z</time></trkpt>
      <trkpt lat="18.530156" lon="73.855330"><ele>555.5</ele><time>2026-09-20T06:42:05Z</time></trkpt>
      <trkpt lat="18.530279" lon="73.855424"><ele>556.3</ele><time>2026-09-20T06:42:10Z</time></trkpt>
      <trkpt lat="18.530405" lon="73.855518"><ele>557.2</ele><time>2026-09-20T06:42:15Z</time></trkpt>
      <trkpt lat="18.530534" lon="73.855609"><ele>558.1</ele><time>2026-09-20T06:42:20Z</time></trkpt>
      <trkpt lat="18.530665" lon="73.855699"><ele>559.0</ele><time>2026-09-20T06:42:25Z</time></trkpt>
      <trkpt lat="18.530800" lon="73.855785"><ele>560.0</ele><time>2026-09-20T06:42:30Z</time></trkpt>
    </trkseg>
  </trk>
</gpx>
